#dP2020  1 31  0  0  0.00000000      96 __u+U ITR00 FIT  IAC
## 2090 432000.00000000   900.00000000 58879 0.0000000000000
+  106   C06C07C08C09C10C11C12C13C14C16C19C20C21C22C23C24C25
+        C26C27C28C29C30C32C33C34C35C36C37E01E02E03E04E05E07
+        E08E09E11E12E13E14E15E18E19E21E24E25E26E27E30E31E33
+        E36G01G02G03G04G05G06G07G08G09G10G11G12G13G14G15G16
+        G17G18G19G20G21G22G23G24G25G26G27G28G29G30G31G32R01
+        R02R03R04R05R07R08R09R11R12R13R14R15R16R17R18R19R20
+        R21R22R23R26  0  0  0  0  0  0  0  0  0  0  0  0  0
++         8  9  9  8  8  8  8  9  8  8  8  8  8  8  8  8  8
++         8  8  8  8  8  8  8  8  8  8  8  5  4  4  4  4  4
++         4  4  4  4  5  4  5  4  4  4  4  4  4  4  4  4  4
++         4  3  3  3  4  3  3  3  3  3  3  3  3  3  4  4  4
++         3  4  3  3  4  3  3  3  4  4  3  3  4  3  4  3  6
++         5  5  6  6  5  5  5  6  6  6  5  5  6  5  5  6  6
++         6  6  5  8  0  0  0  0  0  0  0  0  0  0  0  0  0
%c M  cc GPS ccc cccc cccc cccc cccc ccccc ccccc ccccc ccccc
%c cc cc ccc ccc cccc cccc cccc cccc ccccc ccccc ccccc ccccc
%f  0.0000000  0.000000000  0.00000000000  0.000000000000000
%f  0.0000000  0.000000000  0.00000000000  0.000000000000000
%i    0    0    0    0      0      0      0      0         0
%i    0    0    0    0      0      0      0      0         0
/* INFORMATION & ANALYSIS CENTER (IAC)      ULTRA-RAPID DATA
/* S/V CLOCKS ARE ALIGNED TO GNSS TIME                      
/* G:C1WC2W R:C1PC2P E:C1XC5X C:C2IC6I J:C1CC2S             
/* PCV:IGS14_2086 OL/AL:FES2004  NONE     YN ORB:CoN CLK:CoN
*  2020 01 31 19 15  0.00000000
PC06 -20814.531810  36471.686280  -5454.783077    251.940787
PC07  -6885.016939  31324.851376 -26977.751773     52.213485
PC08 -17655.007604  18834.573494  33335.814302   -101.707047
PC09 -12116.244515  36442.013961 -17585.042401    301.335217
PC10   4272.599874  37260.177394 -18676.519265   -615.156989
PC11 -16723.657892  -5219.980387 -21642.307313   -154.514105
PC12    730.425524 -18146.309506 -21153.815450    314.263513
PC13  -2677.395843  22991.961652  35326.965610    239.351876
PC14 -14713.264556 -15997.342969  17558.150797    121.731941
PC16 -19168.035583  36974.292756  -7192.300974   -809.350567
PC19  16241.768330   5917.786976 -21882.777433    313.203751
PC20  11118.032536  23072.493865 -11038.039159   -640.309011
PC21    833.111204 -27077.828393  -6717.606965    -31.431588
PC22  12047.757481 -15027.839638 -20199.924596   -771.909570
PC23 -18927.948510   6923.516447 -19299.379685   -881.091381
PC24 -18242.066483 -17121.109118  12323.030346   -913.515428
PC25 -26647.549151  -6313.532395  -5315.594529   -500.339462
PC26   -603.923717 -17021.354420  22093.445578    554.511114
PC27  -9866.732666  20913.740583  15626.266805    270.416830
PC28 -22659.323713  16260.242145   -848.830318    261.357017
PC29  22106.227116  -2965.063609  16768.686527    181.434002
PC30   8936.124400  13201.297697  22909.726516    264.878115
PC32   -664.799268  27070.654030   6747.072720   -862.626703
PC33 -16311.132074  -5930.829350  21858.819054   -850.254898
PC34  -9329.538525 -12945.703167 -22891.848937   -434.462519
PC35  22142.476609 -16924.538524    994.025050   -826.576881
PC36  26506.781105   7072.168574   5135.260908   -836.838900
PC37   -405.660932  16859.546165 -22221.372126   -896.445635
PE01 -14330.846438   8497.101619 -24466.284973   -785.261543
PE02  14292.579680  -8542.652807  24471.871131    109.573601
PE03  16612.246320 -19721.799212 -14550.270899   -261.223535
PE04  -6188.330935  28774.288575  -3159.346310   -456.665147
PE05  17407.811580   1005.873668 -23922.377311   -409.325926
PE07  -8025.108536 -21007.060521  19252.933348   -334.637666
PE08   5879.068180 -28822.270847   3350.092403   6226.845794
PE09   8116.275984  20842.633071 -19381.547757   6170.943771
PE11  14536.377870  11937.185688  22854.511227   1048.389149
PE12  -7956.521582  17404.606612  22598.020629   5973.973076
PE13 -14349.280080 -11907.645072 -22976.243588    397.911618
PE14   8428.385286  12840.945918  17581.444952   -888.416407
PE15   7647.529817 -17352.369597 -22711.908768    878.878437
PE18 -13950.198517 -15610.566137 -25036.567115   -985.471258
PE19 -17110.761631  17927.351685  16189.141541     -1.742999
PE21 -23378.566193  -9900.771098 -15215.983493   -580.144180
PE24  18617.778065  22821.586854  -3111.073736   5634.058100
PE25  23398.026067  10003.384020  15130.754684   -502.693309
PE26 -28045.048325    472.681464  -9439.782708   3582.367914
PE27 -18766.976594 -22677.972920   3055.710015    291.998164
PE30  -2870.438216 -22060.029957  19507.766377   4180.050240
PE31   3169.557322  22088.997395 -19445.194420   -471.544795
PE33 -25170.731759  12630.577033   9140.206398   -470.657776
PE36  27934.832294   -508.998120   9782.282855    604.178603
PG01 -12869.477242 -13682.836142 -19112.636270   -280.270855
PG02 -11479.060170  14159.815503  19927.084725   -396.326552
PG03 -13351.543142 -22896.916492   2308.754793    -84.203175
PG04  -5642.795601 -16454.887961  20071.511070    -42.328885
PG05  -1371.359454  21088.338708  15833.401668     -6.905997
PG06 -22460.649963   7119.840725  12350.852858   -196.850070
PG07 -25375.821859  -6218.993651   6322.287841   -204.350692
PG08   3053.676608 -22404.240370 -13702.857439    -22.160281
PG09 -13863.303125  -6772.232300  21564.600471   -145.217924
PG10  16149.299608   -403.868945 -21047.684132   -229.186992
PG11  -4023.679838 -16147.702208 -21201.440254   -374.246010
PG12   9682.090381  24820.870609  -1069.926336    156.285800
PG13 -11624.292426  22417.791428  -8224.231572    -16.112630
PG14  18401.469737 -18312.491909  -4788.314484    -35.344258
PG15    325.550374  22468.091627 -14165.555206   -254.751112
PG16   3505.916465 -20413.857461  16154.548245   -119.521369
PG17 -19498.135662  10893.087098 -13903.342498    208.250171
PG18  -3840.563166 -15380.539905 -21826.101798      0.128818
PG19 -19768.897457  16021.829107  -7915.948967   -204.922471
PG20  19915.150989   9435.009694 -15059.484310    527.844218
PG21  25796.350567   3549.994310   5304.400891    -47.655813
PG22  -9734.744473 -24052.652669  -5718.449717   -783.573813
PG23  -7974.344010 -15284.763605  20465.523179   -139.436537
PG24  11147.006936  14408.982999 -19631.903902     -8.367968
PG25  16835.131965  17947.900589  10112.213888    -14.634919
PG26   9663.390524 -13367.781765  20748.835329    138.911592
PG27  11818.871203 -23244.249113  -4124.345103   -197.661931
PG28 -15012.368230    910.390213 -21284.761367    742.038764
PG29  12292.911920   8018.725673  22105.184710    -21.536818
PG30 -26147.155260   1296.436027  -5050.734214   -142.306277
PG31  21174.216227  -8200.665501  14114.340985    -20.200782
PG32  19204.542967 -11918.274873 -13772.541599    200.180248
PR01   5357.799335  21640.558306 -12386.078008     56.422577
PR02  10766.726302   2214.020664 -22985.113526    409.714680
PR03   9027.670094 -16319.671332 -17340.213816      9.227179
PR04   2032.474125 -25354.061886  -1880.347853     37.225839
PR05  -5949.332194 -19980.429884  14688.963584     44.168227
PR07  -8912.031293  16835.771136  17018.815821    -32.671838
PR08  -2166.052832  25347.978996   2018.120893    -50.299801
PR09 -21180.336498  -5997.694102 -12932.261915    114.372407
PR11   4671.409455  14653.544664 -20326.511932    -11.909150
PR12  18313.041162  16014.716126  -7695.472278    101.728673
PR13  21978.093900   8085.862174  10097.166350    -34.222663
PR14  12566.381268  -4336.280126  21776.875560     47.657224
PR15  -3878.198158 -14243.171521  20817.023455    105.810321
PR16 -18718.318174 -15603.633555   7290.237063     -1.265720
PR17  21795.239108 -12860.925186  -3326.132164    297.105811
PR18  10463.572062 -14503.944812 -18139.740493     23.507673
PR19  -5877.230812  -8698.707217 -23239.489208    -76.805136
PR20 -21100.591508   3162.839148 -14000.669112   -402.918831
PR21 -21463.182227  13094.572526   4240.739452   -101.900314
PR22  -8011.672547  13984.137833  19828.577914    -12.115760
PR23  12013.710850   4986.083689  21941.635018    283.434085
PR26 -18862.307021    909.057180 -17116.964872   -409.787274
EOF
